satname,norad_id,inclination_deg,eccentricity,mean_motion_rev_per_day,perigee_km,apogee_km,l1,l2
STARLINK-1297,45395,53.0497,0.0001724,15.49587493,416.7602550487354,419.1035396045345,1 45395U 20019AM  26045.63174837  .00067268  00000+0  11953-2 0  9993,2 45395  53.0497 241.6346 0001724 164.1450 195.9612 15.49587493325836
STARLINK-1307,45397,53.0547,0.0001159,15.48617238,419.98223454887284,421.5582212442978,1 45397U 20019AP  26044.87917732  .00022159  00000+0  41520-3 0  9993,2 45397  53.0547 244.8647 0001159  91.3649 268.7491 15.48617238326369
STARLINK-1255,45399,53.043,0.0005427,15.47579181,420.1187695492263,427.5016030252227,1 45399U 20019AR  26045.66668981  .00084082  00000+0  15964-2 0  9997,2 45399  53.0430 213.1711 0005427 164.9894 208.2467 15.47579181  5914
STARLINK-1260,45404,53.161,0.0001363,15.30193043,474.301727127674,476.1699565643612,1 45404U 20019AW  26044.92314551  .00000977  00000+0  45116-4 0  9998,2 45404  53.1610 239.6335 0001363  89.6211 270.4946 15.30193043326334
STARLINK-1263,45405,53.1591,0.0001351,15.30199827,474.2896980318246,476.14147390055314,1 45405U 20019AX  26044.91156403  .00001606  00000+0  66343-4 0  9993,2 45405  53.1591 239.7171 0001351  88.1939 271.9217 15.30199827326333
STARLINK-1265,45406,53.1595,0.000129,15.30193006,474.35186721133687,476.1200374330365,1 45406U 20019AY  26045.51415903  .00000801  00000+0  39170-4 0  9998,2 45406  53.1595 236.9912 0001290  99.2209 260.8937 15.30193006326424
STARLINK-1278,45408,53.0471,0.0004972,15.51076279,410.20559649926145,416.95928230980553,1 45408U 20019BA  26045.55536731  .00075104  00000+0  12634-2 0  9999,2 45408  53.0471 241.9810 0004972 121.0821 239.0676 15.51076279326361
STARLINK-1296,45412,53.1596,0.0001601,15.30186595,474.1578665509005,476.35232269960034,1 45412U 20019BE  26045.50782633 -.00000025  00000+0  11304-4 0  9999,2 45412  53.1596 236.9260 0001601  84.3460 275.7723 15.30186595326421
STARLINK-1298,45413,53.0382,0.000613,15.84641204,313.230885105535,321.4395340344672,1 45413U 20019BF  26045.66668981  .00228602  00000+0  94716-3 0  9995,2 45413  53.0382 171.1600 0006130 273.2263  60.0847 15.84641204  6018
STARLINK-1309,45414,53.0694,0.0001158,15.50350617,414.9148500196252,416.4883030339497,1 45414U 20019BG  26045.51685287  .00055943  00000+0  97039-3 0  9995,2 45414  53.0694 235.1726 0001158 339.0424  21.0537 15.50350617326432
STARLINK-1316,45415,53.1574,0.000127,15.30198253,474.34990927611034,476.0906620266651,1 45415U 20019BH  26045.55312735 -.00001446  00000+0 -36708-4 0  9993,2 45415  53.1574 236.7647 0001270 103.3391 256.7751 15.30198253326451
STARLINK-1318,45416,53.0331,0.0006815,15.96470739,279.6790751985309,288.7598670686866,1 45416U 20019BJ  26045.66668981  .00492058  11098-3  11463-2 0  9996,2 45416  53.0331 156.9658 0006815 324.3017  12.6293 15.96470739  6029
STARLINK-1286,45417,53.0485,0.0002007,15.49036812,418.1781713293094,420.9067598667998,1 45417U 20019BK  26044.87648626  .00031160  00000+0  57143-3 0  9999,2 45417  53.0485 244.9754 0002007  87.5121 272.6117 15.49036812326530
STARLINK-1308,45419,53.0542,0.0002428,15.43144963,435.17951574926064,438.4888657594911,1 45419U 20019BM  26045.66668981  .00069148  00000+0  15326-2 0  9998,2 45419  53.0542 262.2453 0002428 134.1244  47.2475 15.43144963  5614
STARLINK-1329,45531,53.0508,0.0005175,15.51445922,408.98945647774417,416.0177695121929,1 45531U 20025A   26045.61386997  .00074397  00000+0  12353-2 0  9998,2 45531  53.0508 192.7033 0005175 175.4636 184.6420 15.51445922321869
STARLINK-1338,45532,53.0505,0.0004701,15.50384667,412.40836723439224,418.795840739961,1 45532U 20025B   26045.65519275  .00065782  00000+0  11365-2 0  9990,2 45532  53.0505 195.6643 0004701 224.9301 135.1327 15.50384667321829
STARLINK-1350,45535,53.0726,0.0001004,15.35456237,458.87917567147997,460.25218636982936,1 45535U 20025E   26045.55820247  .00008304  00000+0  24824-3 0  9998,2 45535  53.0726 141.7184 0001004  81.6638 278.4478 15.35456237322604
STARLINK-1362,45538,53.1577,0.0001364,15.29354039,476.80697882327877,478.67726264741486,1 45538U 20025H   26045.59536221  .00000994  00000+0  46784-4 0  9998,2 45538  53.1577 208.2197 0001364 103.0282 257.0871 15.29354039321641
STARLINK-1368,45540,53.163,0.0001367,15.29354413,476.80380448628875,478.6782015323115,1 45540U 20025K   26045.66668981 -.00025286  00000+0 -86693-3 0  9993,2 45540  53.1630 208.2474 0001367 104.2596 224.0663 15.29354413  5699
STARLINK-1371,45542,53.0512,0.0003985,15.43618234,432.72593547970973,438.15635726236724,1 45542U 20025M   26045.59093563  .00016966  00000+0  37946-3 0  9995,2 45542  53.0512 199.4371 0003985 181.0496 179.0501 15.43618234321765
STARLINK-1372,45543,53.1623,0.0001331,15.30196096,474.31454337246396,476.1389087963471,1 45543U 20025N   26045.65148073  .00001863  00000+0  75034-4 0  9991,2 45543  53.1623 208.0286 0001331  91.5255 268.5898 15.30196096320746
STARLINK-1373,45544,53.0515,0.0004099,15.46303062,424.76231945112977,430.34162326985006,1 45544U 20025P   26045.59201152  .00066716  00000+0  13287-2 0  9991,2 45544  53.0515 199.5618 0004099 253.7780 106.2775 15.46303062321763
STARLINK-1294,45551,53.0309,0.0009277,15.92322289,289.59460288741593,301.97739962394553,1 45551U 20025W   26045.66668981  .00320226  50007-4  93239-3 0  9996,2 45551  53.0309  93.0685 0009277  20.0511   3.8559 15.92322289  6017
STARLINK-1327,45555,53.0493,0.0002654,15.4948443,416.4294948718025,420.0370082013169,1 45555U 20025AA  26045.59309951  .00062189  00000+0  11103-2 0  9994,2 45555  53.0493 177.7300 0002654 317.1901  42.8899 15.49484430322069
STARLINK-1356,45564,53.0511,0.0003411,15.42282649,437.0487379854776,441.69964412001445,1 45564U 20025AK  26045.61397440  .00068915  00000+0  15721-2 0  9990,2 45564  53.0511 183.4833 0003411 297.2903  62.7754 15.42282649321989
STARLINK-1357,45565,53.0555,0.000179,15.50841021,413.05343716213974,415.485118609623,1 45565U 20025AL  26045.61179494  .00078297  00000+0  13278-2 0  9997,2 45565  53.0555 149.2458 0001790 332.0991  27.9921 15.50841021322472
STARLINK-1361,45567,53.0512,0.0004131,15.43451025,433.1183421413689,438.7481269691589,1 45567U 20025AN  26045.66668981  .00072293  00000+0  15845-2 0  9990,2 45567  53.0512 183.6392 0004131 307.2935  41.6302 15.43451025  5848
STARLINK-1363,45568,53.045,0.0006975,15.71042335,351.2198098051058,360.6138148733198,1 45568U 20025AP  26045.66668981  .00178706  00000+0  13686-2 0  9998,2 45568  53.0450 152.2406 0006975 339.2656 124.6929 15.71042335  5805
STARLINK-1366,45569,53.0456,0.0006588,15.70659805,352.57302690436063,361.44725677845054,1 45569U 20025AQ  26045.66668981  .00172756  00000+0  13457-2 0  9994,2 45569  53.0456 152.9104 0006588 335.0394  94.2028 15.70659805  5950
STARLINK-1376,45570,53.161,0.0001355,15.29362997,476.7863812364012,478.644317223042,1 45570U 20025AR  26045.65051815  .00000311  00000+0  23120-4 0  9994,2 45570  53.1610 184.6797 0001355  82.4479 277.6675 15.29362997321974
STARLINK-1320,45572,53.0495,0.0007987,15.63956212,370.84762515892453,381.63707072933084,1 45572U 20025AT  26045.66668981  .00139782  00000+0  14351-2 0  9994,2 45572  53.0495  98.9628 0007987 325.6173 145.5778 15.63956212  5890
STARLINK-1321,45573,53.0505,0.0002146,15.44444191,431.5500241261634,434.47336914676,1 45573U 20025AU  26045.61937282  .00065447  00000+0  13894-2 0  9990,2 45573  53.0505 168.5701 0002146 280.4646  79.6117 15.44444191321896
STARLINK-1331,45578,53.0548,0.0001162,15.44439948,432.2327144312958,433.81562828751885,1 45578U 20025AZ  26045.62638956  .00054477  00000+0  11599-2 0  9993,2 45578  53.0548 175.1970 0001162  60.8236 299.2886 15.44439948322115
STARLINK-1333,45580,53.1614,0.0001427,15.30196236,474.2483331238345,476.20428301195716,1 45580U 20025BB  26045.63724550  .00002490  00000+0  96189-4 0  9991,2 45580  53.1614 184.8791 0001427  83.0821 277.0342 15.30196236321971
STARLINK-1335,45581,53.0546,0.0001331,15.06396104,546.301733160516,548.1452641252554,1 45581U 20025BC  26045.64110122  .00000299  00000+0  38983-4 0  9990,2 45581  53.0546 180.0874 0001331  91.3641 268.7501 15.06396104322032
STARLINK-1337,45582,53.0546,0.0001333,15.53857553,404.5713608010674,406.3798719245897,1 45582U 20025BD  26045.62673990  .00048950  00000+0  75040-3 0  9996,2 45582  53.0546 173.4210 0001333  51.1337 308.9792 15.53857553322122
STARLINK-1347,45586,53.0483,0.0004972,15.49647786,414.3766994435164,421.13453506211226,1 45586U 20025BH  26045.55954670  .00061444  00000+0  10906-2 0  9991,2 45586  53.0483 140.7731 0004972 312.3865  47.6721 15.49647786322579
STARLINK-1364,45589,53.0531,0.0004559,15.45529687,426.71838767993086,432.92588482036354,1 45589U 20025BL  26045.63019689  .00064029  00000+0  13102-2 0  9998,2 45589  53.0531 173.4143 0004559 329.3694  30.7045 15.45529687322123
STARLINK-1365,45590,53.0533,3.28e-05,15.42706235,437.9026226362794,438.3497695019423,1 45590U 20025BM  26045.62299197  .00016422  00000+0  37903-3 0  9993,2 45590  53.0533 203.2014 0000328 173.0017 187.0993 15.42706235321725
STARLINK-1443,45660,53.0564,0.0001321,15.06401955,546.2907283983413,548.1204039043187,1 45660U 20035D   26045.60148918  .00001383  00000+0  11170-3 0  9992,2 45660  53.0564 170.2668 0001321  91.4734 268.6406 15.06401955315255
STARLINK-1446,45663,53.0245,0.0001958,15.41880014,439.22588754997923,441.89608968232096,1 45663U 20035G   26045.54828205  .00015510  00000+0  36851-3 0  9992,2 45663  53.0245 109.2129 0001958 174.4677 185.6349 15.41880014316107
STARLINK-1448,45665,53.0523,0.0004716,15.47678695,420.3109506718147,426.7262722445421,1 45665U 20035J   26045.62980512  .00071440  00000+0  13553-2 0  9990,2 45665  53.0523 163.3588 0004716 357.3496   2.7485 15.47678695315345
STARLINK-1451,45668,53.0526,0.0001077,15.08839973,538.9984157655226,540.4885272190832,1 45668U 20035M   26045.57217212  .00020200  00000+0  12835-2 0  9997,2 45668  53.0526 170.3305 0001077 219.2930 140.7982 15.08839973315252
